{"type": "FeatureCollection", "features": [ {"type": "Feature", "properties": {"norad_id": 33905, "name": "COSMOS 2251 DEB", "group": "cosmos-2251-debris", "lat": 59.31180366238662, "lon": 2.6029259447997104, "alt_km": 808.100039177566, "timestamp": "2025-12-03T15:48:03.459368+00:00", "meta": {"OBJECT_NAME": "COSMOS 2251 DEB", "OBJECT_ID": "1993-036DJ", "EPOCH": "2025-12-02T18:34:39.366336", "MEAN_MOTION": 14.35321238, "ECCENTRICITY": 0.00594934, "INCLINATION": 73.8867, "RA_OF_ASC_NODE": 335.0897, "ARG_OF_PERICENTER": 226.4458, "MEAN_ANOMALY": 309.8103, "EPHEMERIS_TYPE": 0, "CLASSIFICATION_TYPE": "U", "NORAD_CAT_ID": 33905, "ELEMENT_SET_NO": 999, "REV_AT_EPOCH": 87544, "BSTAR": 0.00099550787, "MEAN_MOTION_DOT": 2.885e-05, "MEAN_MOTION_DDOT": 0}, "tle": {"line1": "1 33905U 93036DJ  25336.77406674  .00002885  00000+0  99551-3 0  9995", "line2": "2 33905  73.8867 335.0897 0059493 226.4458 309.8103 14.35321238875441"}}, "geometry": {"type": "Point", "coordinates": [2.6029259447997104, 59.31180366238662]}}, {"type": "Feature", "properties": {"norad_id": 33906, "name": "COSMOS 2251 DEB", "group": "cosmos-2251-debris", "lat": -35.4948063564882, "lon": -33.05571348234897, "alt_km": 691.7961602921814, "timestamp": "2025-12-03T15:48:03.459377+00:00", "meta": {"OBJECT_NAME": "COSMOS 2251 DEB", "OBJECT_ID": "1993-036DK", "EPOCH": "2025-12-03T01:23:23.532000", "MEAN_MOTION": 14.56802177, "ECCENTRICITY": 0.00362632, "INCLINATION": 74.0306, "RA_OF_ASC_NODE": 339.8678, "ARG_OF_PERICENTER": 11.0992, "MEAN_ANOMALY": 44.3061, "EPHEMERIS_TYPE": 0, "CLASSIFICATION_TYPE": "U", "NORAD_CAT_ID": 33906, "ELEMENT_SET_NO": 999, "REV_AT_EPOCH": 87867, "BSTAR": 0.0026508773, "MEAN_MOTION_DOT": 0.00011966, "MEAN_MOTION_DDOT": 0}, "tle": {"line1": "1 33906U 93036DK  25337.05791125  .00011966  00000+0  26509-2 0  9998", "line2": "2 33906  74.0306 339.8678 0036263  11.0992  44.3061 14.56802177878674"}}, "geometry": {"type": "Point", "coordinates": [-33.05571348234897, -35.4948063564882]}}, {"type": "Feature", "properties": {"norad_id": 33907, "name": "COSMOS 2251 DEB", "group": "cosmos-2251-debris", "lat": 71.97567503608458, "lon": 111.51270116517733, "alt_km": 710.6519005035561, "timestamp": "2025-12-03T15:48:03.459387+00:00", "meta": {"OBJECT_NAME": "COSMOS 2251 DEB", "OBJECT_ID": "1993-036DL", "EPOCH": "2025-12-02T16:29:31.533792", "MEAN_MOTION": 14.30354915, "ECCENTRICITY": 0.011318, "INCLINATION": 74.0705, "RA_OF_ASC_NODE": 51.9078, "ARG_OF_PERICENTER": 110.3545, "MEAN_ANOMALY": 12.7079, "EPHEMERIS_TYPE": 0, "CLASSIFICATION_TYPE": "U", "NORAD_CAT_ID": 33907, "ELEMENT_SET_NO": 999, "REV_AT_EPOCH": 86436, "BSTAR": 0.0022180325, "MEAN_MOTION_DOT": 6.159e-05, "MEAN_MOTION_DDOT": 0}, "tle": {"line1": "1 33907U 93036DL  25336.68717053  .00006159  00000+0  22180-2 0  9994", "line2": "2 33907  74.0705  51.9078 0113180 110.3545  12.7079 14.30354915864368"}}, "geometry": {"type": "Point", "coordinates": [111.51270116517733, 71.97567503608458]}}, {"type": "Feature", "properties": {"norad_id": 33908, "name": "COSMOS 2251 DEB", "group": "cosmos-2251-debris", "lat": 33.0087259658779, "lon": 31.020817189631046, "alt_km": 895.7194283221233, "timestamp": "2025-12-03T15:48:03.459396+00:00", "meta": {"OBJECT_NAME": "COSMOS 2251 DEB", "OBJECT_ID": "1993-036DM", "EPOCH": "2025-12-03T03:08:46.862016", "MEAN_MOTION": 14.07226005, "ECCENTRICITY": 0.02239494, "INCLINATION": 73.8384, "RA_OF_ASC_NODE": 222.8141, "ARG_OF_PERICENTER": 248.0331, "MEAN_ANOMALY": 109.6872, "EPHEMERIS_TYPE": 0, "CLASSIFICATION_TYPE": "U", "NORAD_CAT_ID": 33908, "ELEMENT_SET_NO": 999, "REV_AT_EPOCH": 85338, "BSTAR": 0.0019738327, "MEAN_MOTION_DOT": 4.133e-05, "MEAN_MOTION_DDOT": 0}, "tle": {"line1": "1 33908U 93036DM  25337.13109794  .00004133  00000+0  19738-2 0  9998", "line2": "2 33908  73.8384 222.8141 0223949 248.0331 109.6872 14.07226005853385"}}, "geometry": {"type": "Point", "coordinates": [31.020817189631046, 33.0087259658779]}}, {"type": "Feature", "properties": {"norad_id": 33911, "name": "COSMOS 2251 DEB", "group": "cosmos-2251-debris", "lat": -53.66652895654043, "lon": 22.350536127404308, "alt_km": 657.1545888638739, "timestamp": "2025-12-03T15:48:03.459405+00:00", "meta": {"OBJECT_NAME": "COSMOS 2251 DEB", "OBJECT_ID": "1993-036DQ", "EPOCH": "2025-12-03T00:39:11.349216", "MEAN_MOTION": 14.74439602, "ECCENTRICITY": 0.00145431, "INCLINATION": 74.0901, "RA_OF_ASC_NODE": 180.759, "ARG_OF_PERICENTER": 127.3595, "MEAN_ANOMALY": 0.5143, "EPHEMERIS_TYPE": 0, "CLASSIFICATION_TYPE": "U", "NORAD_CAT_ID": 33911, "ELEMENT_SET_NO": 999, "REV_AT_EPOCH": 88501, "BSTAR": 0.002322678, "MEAN_MOTION_DOT": 0.00015454, "MEAN_MOTION_DDOT": 0}, "tle": {"line1": "1 33911U 93036DQ  25337.02721469  .00015454  00000+0  23227-2 0  9995", "line2": "2 33911  74.0901 180.7590 0014543 127.3595   0.5143 14.74439602885014"}}, "geometry": {"type": "Point", "coordinates": [22.350536127404308, -53.66652895654043]}}, {"type": "Feature", "properties": {"norad_id": 33912, "name": "COSMOS 2251 DEB", "group": "cosmos-2251-debris", "lat": 30.41125636093216, "lon": 17.156567278971416, "alt_km": 723.8399151537878, "timestamp": "2025-12-03T15:48:03.459415+00:00", "meta": {"OBJECT_NAME": "COSMOS 2251 DEB", "OBJECT_ID": "1993-036DR", "EPOCH": "2025-12-03T02:35:30.229728", "MEAN_MOTION": 14.51806999, "ECCENTRICITY": 0.00116089, "INCLINATION": 74.0338, "RA_OF_ASC_NODE": 207.8669, "ARG_OF_PERICENTER": 286.6, "MEAN_ANOMALY": 226.2064, "EPHEMERIS_TYPE": 0, "CLASSIFICATION_TYPE": "U", "NORAD_CAT_ID": 33912, "ELEMENT_SET_NO": 999, "REV_AT_EPOCH": 88293, "BSTAR": 0.00093750224, "MEAN_MOTION_DOT": 3.749e-05, "MEAN_MOTION_DDOT": 0}, "tle": {"line1": "1 33912U 93036DR  25337.10798877  .00003749  00000+0  93750-3 0  9995", "line2": "2 33912  74.0338 207.8669 0011608 286.6000 226.2064 14.51806999882935"}}, "geometry": {"type": "Point", "coordinates": [17.156567278971416, 30.41125636093216]}}, {"type": "Feature", "properties": {"norad_id": 33913, "name": "COSMOS 2251 DEB", "group": "cosmos-2251-debris", "lat": -14.298518840249926, "lon": -163.52572255644873, "alt_km": 708.9440300736715, "timestamp": "2025-12-03T15:48:03.459424+00:00", "meta": {"OBJECT_NAME": "COSMOS 2251 DEB", "OBJECT_ID": "1993-036DS", "EPOCH": "2025-12-02T16:55:27.076800", "MEAN_MOTION": 14.48421393, "ECCENTRICITY": 0.00481477, "INCLINATION": 74.0338, "RA_OF_ASC_NODE": 202.4437, "ARG_OF_PERICENTER": 306.8387, "MEAN_ANOMALY": 109.7655, "EPHEMERIS_TYPE": 0, "CLASSIFICATION_TYPE": "U", "NORAD_CAT_ID": 33913, "ELEMENT_SET_NO": 999, "REV_AT_EPOCH": 88312, "BSTAR": 0.0007120172, "MEAN_MOTION_DOT": 2.679e-05, "MEAN_MOTION_DDOT": 0}, "tle": {"line1": "1 33913U 93036DS  25336.70517450  .00002679  00000+0  71202-3 0  9996", "line2": "2 33913  74.0338 202.4437 0048147 306.8387 109.7655 14.48421393883121"}}, "geometry": {"type": "Point", "coordinates": [-163.52572255644873, -14.298518840249926]}}, {"type": "Feature", "properties": {"norad_id": 33914, "name": "COSMOS 2251 DEB", "group": "cosmos-2251-debris", "lat": -64.00040508085463, "lon": -5.723165024284648, "alt_km": 1200.9118847019336, "timestamp": "2025-12-03T15:48:03.459433+00:00", "meta": {"OBJECT_NAME": "COSMOS 2251 DEB", "OBJECT_ID": "1993-036DT", "EPOCH": "2025-12-03T07:49:11.826912", "MEAN_MOTION": 13.71969369, "ECCENTRICITY": 0.03019997, "INCLINATION": 74.0917, "RA_OF_ASC_NODE": 30.6087, "ARG_OF_PERICENTER": 135.9076, "MEAN_ANOMALY": 311.6762, "EPHEMERIS_TYPE": 0, "CLASSIFICATION_TYPE": "U", "NORAD_CAT_ID": 33914, "ELEMENT_SET_NO": 999, "REV_AT_EPOCH": 83952, "BSTAR": 0.00089057882, "MEAN_MOTION_DOT": 1.099e-05, "MEAN_MOTION_DDOT": 0}, "tle": {"line1": "1 33914U 93036DT  25337.32583133  .00001099  00000+0  89058-3 0  9990", "line2": "2 33914  74.0917  30.6087 0301999 135.9076 311.6762 13.71969369839523"}}, "geometry": {"type": "Point", "coordinates": [-5.723165024284648, -64.00040508085463]}}, {"type": "Feature", "properties": {"norad_id": 33915, "name": "COSMOS 2251 DEB", "group": "cosmos-2251-debris", "lat": 28.39440583411479, "lon": -138.14649124895755, "alt_km": 698.414516905148, "timestamp": "2025-12-03T15:48:03.459442+00:00", "meta": {"OBJECT_NAME": "COSMOS 2251 DEB", "OBJECT_ID": "1993-036DU", "EPOCH": "2025-12-03T05:12:49.713984", "MEAN_MOTION": 14.35042449, "ECCENTRICITY": 0.01049705, "INCLINATION": 74.045, "RA_OF_ASC_NODE": 51.5578, "ARG_OF_PERICENTER": 146.5997, "MEAN_ANOMALY": 245.5282, "EPHEMERIS_TYPE": 0, "CLASSIFICATION_TYPE": "U", "NORAD_CAT_ID": 33915, "ELEMENT_SET_NO": 999, "REV_AT_EPOCH": 87621, "BSTAR": 0.00074207192, "MEAN_MOTION_DOT": 2.226e-05, "MEAN_MOTION_DDOT": 0}, "tle": {"line1": "1 33915U 93036DU  25337.21724206  .00002226  00000+0  74207-3 0  9990", "line2": "2 33915  74.0450  51.5578 0104970 146.5997 245.5282 14.35042449876214"}}, "geometry": {"type": "Point", "coordinates": [-138.14649124895755, 28.39440583411479]}}, {"type": "Feature", "properties": {"norad_id": 33916, "name": "COSMOS 2251 DEB", "group": "cosmos-2251-debris", "lat": -48.394214249680346, "lon": 36.72790857849763, "alt_km": 959.5533935409894, "timestamp": "2025-12-03T15:48:03.459452+00:00", "meta": {"OBJECT_NAME": "COSMOS 2251 DEB", "OBJECT_ID": "1993-036DV", "EPOCH": "2025-12-03T07:38:19.491360", "MEAN_MOTION": 13.68595075, "ECCENTRICITY": 0.03255048, "INCLINATION": 74.0531, "RA_OF_ASC_NODE": 56.0685, "ARG_OF_PERICENTER": 230.2106, "MEAN_ANOMALY": 200.1846, "EPHEMERIS_TYPE": 0, "CLASSIFICATION_TYPE": "U", "NORAD_CAT_ID": 33916, "ELEMENT_SET_NO": 999, "REV_AT_EPOCH": 83762, "BSTAR": 0.00082282226, "MEAN_MOTION_DOT": 9.98e-06, "MEAN_MOTION_DDOT": 0}, "tle": {"line1": "1 33916U 93036DV  25337.31828115  .00000998  00000+0  82282-3 0  9992", "line2": "2 33916  74.0531  56.0685 0325504 230.2106 200.1846 13.68595075837623"}}, "geometry": {"type": "Point", "coordinates": [36.72790857849763, -48.394214249680346]}}]}